NORAD_CAT_ID,OBJECT_NAME,OBJECT_TYPE,EPOCH,MEAN_MOTION,ECCENTRICITY,INCLINATION,RA_OF_ASC_NODE,ARG_OF_PERICENTER,MEAN_ANOMALY,BSTAR,MEAN_MOTION_DOT,MEAN_MOTION_DDOT,TLE_LINE0,TLE_LINE1,TLE_LINE2,SEMIMAJOR_AXIS,PERIOD,APOGEE,PERIGEE,DECAYED
54097.0,STARLINK-5197,PAYLOAD,2022-11-06 06:00:00,15.73208814,0.0001847,53.2156,65.4746,32.7035,185.8074,0.00033852,0.00047175,0.0,0 STARLINK-5197,1 54097U 22136AY  22310.25001157  .00047175  00000-0  33852-3 0  9996,2 54097  53.2156  65.4746 0001847  32.7035 185.8074 15.73208814  3118,6727.87,91.533,350.978,348.492,0.0
54097.0,STARLINK-5197,PAYLOAD,2022-11-06 14:00:01,15.73256741,0.0002033,53.2158,63.827,27.129,280.3236,-0.00013097,-0.00019007,0.0,0 STARLINK-5197,1 54097U 22136AY  22310.58334491 -.00019007  00000-0 -13097-3 0  9996,2 54097  53.2158  63.8270 0002033  27.1290 280.3236 15.73256741  1305,6727.733,91.53,350.966,348.231,0.0
54097.0,STARLINK-5197,PAYLOAD,2022-11-07 00:00:00,15.7326284,0.0002071,53.2161,61.7643,24.3145,124.3697,-0.0011821,-0.00163792,0.0,0 STARLINK-5197,1 54097U 22136AY  22311.00001157 -.00163792  00000-0 -11821-2 0  9997,2 54097  53.2161  61.7643 0002071  24.3145 124.3697 15.73262840  3239,6727.715999999999,91.53,350.974,348.18800000000016,0.0
54097.0,STARLINK-5197,PAYLOAD,2022-11-07 14:00:01,15.73148397,0.0002243,53.2159,58.8789,22.7681,191.5096,0.00042148,0.00058819,0.0,0 STARLINK-5197,1 54097U 22136AY  22311.58334491  .00058819  00000-0  42148-3 0  9998,2 54097  53.2159  58.8789 0002243  22.7681 191.5096 15.73148397  3321,6728.042,91.536,351.416,348.398,0.0
54097.0,STARLINK-5197,PAYLOAD,2022-11-07 22:00:00,15.73216673,0.0002248,53.2157,57.229,20.1096,283.0516,0.00022422,0.00030987,0.0,0 STARLINK-5197,1 54097U 22136AY  22311.91667824  .00030987  00000-0  22422-3 0  9993,2 54097  53.2157  57.2290 0002248  20.1096 283.0516 15.73216673  1309,6727.848000000001,91.532,351.225,348.2,0.0
54097.0,STARLINK-5197,PAYLOAD,2022-11-08 00:00:02,15.73272951,0.0002203,53.2159,56.816,20.2691,35.2202,0.00041489,0.00058197,0.0,0 STARLINK-5197,1 54097U 22136AY  22312.00002315  .00058197  00000-0  41489-3 0  9999,2 54097  53.2159  56.8160 0002203  20.2691  35.2202 15.73272951  3396,6727.687,91.529,351.034,348.07,0.0
54097.0,STARLINK-5197,PAYLOAD,2022-11-08 10:00:01,15.73289727,0.0002202,53.2163,54.754,19.3085,237.4709,0.00046884,0.00065955,0.0,0 STARLINK-5197,1 54097U 22136AY  22312.41668981  .00065955  00000-0  46884-3 0  9995,2 54097  53.2163  54.7540 0002202  19.3085 237.4709 15.73289727  3459,6727.639,91.528,350.986,348.023,0.0
54097.0,STARLINK-5197,PAYLOAD,2022-11-08 14:00:01,15.73330829,0.0002396,53.2161,53.9302,18.4447,102.7832,-0.00020148,-0.00028964,0.0,0 STARLINK-5197,1 54097U 22136AY  22312.58334491 -.00028964  00000-0 -20148-3 0  9995,2 54097  53.2161  53.9302 0002396  18.4447 102.7832 15.73330829  1303,6727.522,91.526,350.999,347.775,0.0
54097.0,STARLINK-5197,PAYLOAD,2022-11-08 22:00:00,15.733689300000002,0.0002374,53.2162,52.2799,15.7317,194.5703,-0.0012195,-0.00169619,0.0,0 STARLINK-5197,1 54097U 22136AY  22312.91667824 -.00169619  00000-0 -12195-2 0  9996,2 54097  53.2162  52.2799 0002374  15.7317 194.5703 15.73368930  3535,6727.4140000000025,91.523,350.876,347.682,0.0
54097.0,STARLINK-5197,PAYLOAD,2022-11-09 14:00:01,15.73111128,0.0002634999999999,53.216,48.9817,19.6936,8.6015,-0.000228,-0.00032381,0.0,0 STARLINK-5197,1 54097U 22136AY  22313.58334491 -.00032381  00000-0 -22800-3 0  9991,2 54097  53.2160  48.9817 0002635  19.6936   8.6015 15.73111128  1305,6728.149,91.538,351.786,348.241,0.0
54097.0,STARLINK-5197,PAYLOAD,2022-11-09 22:00:01,15.73129054,0.0002626,53.2156,47.3316,18.5415,98.6248,-0.00049447,-0.00069253,0.0,0 STARLINK-5197,1 54097U 22136AY  22313.91668981 -.00069253  00000-0 -49447-3 0  9996,2 54097  53.2156  47.3316 0002626  18.5415  98.6248 15.73129054  3695,6728.097,91.537,351.72900000000016,348.196,0.0
54097.0,STARLINK-5197,PAYLOAD,2022-11-10 14:00:01,15.73094463,0.0002897,53.216,44.0342,23.6198,271.0726,0.00048747,0.00068048,0.0,0 STARLINK-5197,1 54097U 22136AY  22314.58334491  .00068048  00000-0  48747-3 0  9997,2 54097  53.2160  44.0342 0002897  23.6198 271.0726 15.73094463  1307,6728.196,91.539,352.01,348.112,0.0
54097.0,STARLINK-5197,PAYLOAD,2022-11-10 22:00:00,15.73159811,0.0002862,53.216,42.38399999999999,23.0813,0.4345,0.00020499,0.00028199,0.0,0 STARLINK-5197,1 54097U 22136AY  22314.91667824  .00028199  00000-0  20499-3 0  9990,2 54097  53.2160  42.3840 0002862  23.0813   0.4345 15.73159811  3853,6728.01,91.536,351.8,347.949,0.0
54097.0,STARLINK-5197,PAYLOAD,2022-11-11 10:00:00,15.73228493,0.0002948,53.2157,39.9101,25.4518,311.4128,0.00017874,0.00024571,0.0,0 STARLINK-5197,1 54097U 22136AY  22315.41667824  .00024571  00000-0  17874-3 0  9999,2 54097  53.2157  39.9101 0002948  25.4518 311.4128 15.73228493  1309,6727.814,91.532,351.662,347.696,0.0
54097.0,STARLINK-5197,PAYLOAD,2022-11-11 16:00:01,15.73390442,0.000264,53.2173,38.6758,30.7021,283.0552,-0.0021023,-0.00288216,0.0,0 STARLINK-5197,1 54097U 22136AY  22315.66668981 -.00288216  00000-0 -21023-2 0  9991,2 54097  53.2173  38.6758 0002640  30.7021 283.0552 15.73390442  3961,6727.352,91.522,350.99300000000005,347.441,0.0
54097.0,STARLINK-5197,PAYLOAD,2022-11-11 22:00:00,15.73313474,0.0002925,53.2152,37.4354,22.6475,267.6997,-0.00046616,-0.00065869,0.0,0 STARLINK-5197,1 54097U 22136AY  22315.91667824 -.00065869  00000-0 -46616-3 0  9997,2 54097  53.2152  37.4354 0002925  22.6475 267.6997 15.73313474  1303,6727.571999999999,91.527,351.404,347.469,0.0
54097.0,STARLINK-5197,PAYLOAD,2022-11-12 08:00:01,15.73293584,0.000275,53.2155,35.3731,16.4577,115.1748,-0.00064514,-0.00090577,0.0,0 STARLINK-5197,1 54097U 22136AY  22316.33334491 -.00090577  00000-0 -64514-3 0  9996,2 54097  53.2155  35.3731 0002750  16.4577 115.1748 15.73293584  4079,6727.628000000002,91.528,351.343,347.64300000000014,0.0
54097.0,STARLINK-5197,PAYLOAD,2022-11-12 14:00:01,15.73252177,0.0002978,53.2156,34.1372,12.4394,95.9757,-0.00040137,-0.00056714,0.0,0 STARLINK-5197,1 54097U 22136AY  22316.58334491 -.00056714  00000-0 -40137-3 0  9993,2 54097  53.2156  34.1372 0002978  12.4394  95.9757 15.73252177  1304,6727.746,91.53,351.615,347.608,0.0
54097.0,STARLINK-5197,PAYLOAD,2022-11-12 22:00:00,15.73232605,0.0002939,53.2155,32.4862,11.4282,185.9442,-0.00021658,-0.00030956,0.0,0 STARLINK-5197,1 54097U 22136AY  22316.91667824 -.00030956  00000-0 -21658-3 0  9996,2 54097  53.2155  32.4862 0002939  11.4282 185.9442 15.73232605  4162,6727.802,91.531,351.645,347.69,0.0
54097.0,STARLINK-5197,PAYLOAD,2022-11-13 14:00:01,15.73117807,0.0003234,53.215,29.1885,17.6042,357.6427,0.00018906,0.00025906,0.0,0 STARLINK-5197,1 54097U 22136AY  22317.58334491  .00025906  00000-0  18906-3 0  9990,2 54097  53.2150  29.1885 0003234  17.6042 357.6427 15.73117807  1306,6728.13,91.538,352.17,347.819,0.0
54097.0,STARLINK-5197,PAYLOAD,2022-11-13 22:00:00,15.73146149,0.0003092,53.2147,27.5376,16.6718,87.4137,0.00029394,0.00040744,0.0,0 STARLINK-5197,1 54097U 22136AY  22317.91667824  .00040744  00000-0  29394-3 0  9996,2 54097  53.2147  27.5376 0003092  16.6718  87.4137 15.73146149  1307,6728.049,91.536,351.994,347.833,0.0
54097.0,STARLINK-5197,PAYLOAD,2022-11-14 14:00:01,15.73218372,0.0003374,53.2153,24.2408,17.291,264.6142,0.00054146,0.00076137,0.0,0 STARLINK-5197,1 54097U 22136AY  22318.58334491  .00076137  00000-0  54146-3 0  9999,2 54097  53.2153  24.2408 0003374  17.2910 264.6142 15.73218372  4427,6727.843000000003,91.532,351.978,347.43800000000016,0.0
54097.0,STARLINK-5197,PAYLOAD,2022-11-14 22:00:00,15.73272712,0.000313,53.2156,22.589,14.0903,356.7826,-0.00081963,-0.00114493,0.0,0 STARLINK-5197,1 54097U 22136AY  22318.91667824 -.00114493  00000-0 -81963-3 0  9992,2 54097  53.2156  22.5890 0003130  14.0903 356.7826 15.73272712  1307,6727.688,91.529,351.659,347.44699999999995,0.0
54097.0,STARLINK-5197,PAYLOAD,2022-11-15 02:00:01,15.73184875,0.0003098,53.2158,21.7635,13.3608,222.0189,0.0002513,0.00034776,0.0,0 STARLINK-5197,1 54097U 22136AY  22319.08334491  .00034776  00000-0  25130-3 0  9999,2 54097  53.2158  21.7635 0003098  13.3608 222.0189 15.73184875  4508,6727.938,91.534,351.88800000000015,347.719,0.0
54097.0,STARLINK-5197,PAYLOAD,2022-11-15 14:00:01,15.73223649,0.0003418,53.2147,19.2913,11.321,177.4491,7.3962e-05,9.782e-05,0.0,0 STARLINK-5197,1 54097U 22136AY  22319.58334491  .00009782  00000-0  73962-4 0  9990,2 54097  53.2147  19.2913 0003418  11.3210 177.4491 15.73223649  1307,6727.828,91.532,351.992,347.39300000000014,0.0
54097.0,STARLINK-5197,PAYLOAD,2022-11-15 22:00:00,15.73227221,0.000318,53.2145,17.6399,8.1988,269.5379,-0.00052929,-0.00074362,0.0,0 STARLINK-5197,1 54097U 22136AY  22319.91667824 -.00074362  00000-0 -52929-3 0  9993,2 54097  53.2145  17.6399 0003180   8.1988 269.5379 15.73227221  1305,6727.818,91.532,351.82199999999995,347.543,0.0
54097.0,STARLINK-5197,PAYLOAD,2022-11-16 00:00:00,15.73180191,0.0003103,53.2143,17.227,7.0222,22.9617,7.8295e-05,0.00010372,0.0,0 STARLINK-5197,1 54097U 22136AY  22320.00001157  .00010372  00000-0  78295-4 0  9990,2 54097  53.2143  17.2270 0003103   7.0222  22.9617 15.73180191  4652,6727.9519999999975,91.534,351.904,347.72900000000016,0.0
54097.0,STARLINK-5197,PAYLOAD,2022-11-16 14:00:01,15.73271805,0.0003431,53.2161,14.3441,8.729,86.9163,-0.001016,-0.00141335,0.0,0 STARLINK-5197,1 54097U 22136AY  22320.58335648 -.00141335  00000-0 -10160-2 0  9999,2 54097  53.2161  14.3441 0003431   8.7290  86.9163 15.73271805  1305,6727.69,91.529,351.86400000000015,347.247,0.0
54097.0,STARLINK-5197,PAYLOAD,2022-11-16 22:00:08,15.73106165,0.0003119,53.2173,12.6928,10.4372,174.5746,0.0010493,0.00148697,0.0,0 STARLINK-5197,1 54097U 22136AY  22320.91675926  .00148697  00000-0  10493-2 0  9997,2 54097  53.2173  12.6928 0003119  10.4372 174.5746 15.73106165  1300,6728.163000000001,91.539,352.126,347.92900000000014,0.0
